{"type":"FeatureCollection","features":[{"type":"Feature","id":"reserve","properties":{},"geometry":{"type":"Polygon","coordinates":[[[0,0],[4,0],[4,4],[0,4],[0,0]],[[1,1],[3,1],[3,3],[1,3],[1,1]]]}},{"type":"Feature","id":"east","properties":{},"geometry":{"type":"Polygon","coordinates":[[[4,0],[8,0],[8,1],[5,1],[5,4],[4,4],[4,0]]]}},{"type":"Feature","id":"islands","properties":{},"geometry":{"type":"MultiPolygon","coordinates":[[[[1.5,1.5],[2.5,1.5],[2.5,2.5],[1.5,2.5],[1.5,1.5]]],[[[0,5],[1,5],[1,6],[0,6],[0,5]]]]}},{"type":"Feature","id":"overlap","properties":{},"geometry":{"type":"Polygon","coordinates":[[[3.5,0.5],[4.5,0.5],[4.5,1.5],[3.5,1.5],[3.5,0.5]]]}}]}
