{"type":"FeatureCollection","features":[{"type":"Feature","id":"north-west","properties":{"label":"Northwest"},"geometry":{"type":"Polygon","coordinates":[[[0,1],[1,1],[1,2],[0,2],[0,1]]]}},{"type":"Feature","id":"north-east","properties":{"label":"Northeast"},"geometry":{"type":"Polygon","coordinates":[[[1,1],[2,1],[2,2],[1,2],[1,1]]]}},{"type":"Feature","id":"south-west","properties":{"label":"Southwest"},"geometry":{"type":"Polygon","coordinates":[[[0,0],[1,0],[1,1],[0,1],[0,0]]]}},{"type":"Feature","id":"south-east","properties":{"label":"Southeast"},"geometry":{"type":"Polygon","coordinates":[[[1,0],[2,0],[2,1],[1,1],[1,0]]]}}]}
